LEMUR-1                 
1 40044U 14033AL  26073.96237051  .00002959  00000+0  34729-3 0  9996
2 40044  97.7721 225.9579 0049127  28.7785 331.6124 14.84832689631481
LEMUR-2-GREENBERG       
1 42837U 17042N   26074.28998182  .00020077  00000+0  73072-3 0  9991
2 42837  97.3777 255.5721 0008743 343.3604  16.7348 15.28224076474032
LEMUR-2-ANDIS           
1 42838U 17042P   26074.24671760  .00026183  00000+0  87747-3 0  9996
2 42838  97.3660 255.4404 0008879 343.1108  16.9837 15.30862010474065
LEMUR-2-MONSON          
1 42839U 17042Q   26074.23574636  .00019556  00000+0  77963-3 0  9995
2 42839  97.4034 255.6150 0006208 332.1486  27.9418 15.25224248473833
LEMUR-2-FURIAUS         
1 42840U 17042R   26074.00918419  .00028209  00000+0  10779-2 0  9999
2 42840  97.3746 253.4828 0007391  38.5422 321.6343 15.26554397473825
LEMUR-2-PETERG          
1 42841U 17042S   26074.23852923  .00030318  00000+0  10449-2 0  9990
2 42841  97.3978 259.3894 0003406 319.6859  40.4128 15.29955064474053
LEMUR-2-DEMBITZ         
1 42842U 17042T   26074.30682720  .00019686  00000+0  73968-3 0  9996
2 42842  97.3804 256.6926 0006598 356.6988   3.4206 15.27192982474008
LEMUR-2-ZACHARY         
1 42845U 17042W   26074.03725878  .00048430  00000+0  11107-2 0  9996
2 42845  97.3655 264.1850 0003570 357.9522   2.1710 15.42581604474657
LEMUR-2-JIN-LUEN        
1 43182U 18014C   26073.72815399  .00373996  00000+0  17659-2 0  9990
2 43182  97.5419   4.4785 0005370 148.9484 211.2103 15.82063802446263
LEMUR-2-KADI            
1 43184U 18014E   26074.23267137  .00108413  00000+0  10791-2 0  9990
2 43184  97.4675 359.2312 0002442 142.9855 217.1573 15.65353825446251
LEMUR-2-AMANDA-SVANTE   
1 48269U 21034B   26074.20948848  .00033705  00000+0  12014-2 0  9998
2 48269  97.5832 150.3959 0003167 189.7731 170.3447 15.28833916266679
LEMUR-2-SPECIAL-K       
1 48273U 21034F   26074.21863642  .00080947  00000+0  16302-2 0  9996
2 48273  97.5713 155.7707 0001941 209.5036 150.6103 15.46288070267091
LEMUR-2-EMBRIONOVIS     
1 56970U 23084AQ  26074.27825220  .00020671  00000+0  61264-3 0  9998
2 56970  97.6133 215.1374 0008195 290.0876  69.9484 15.34849590153261
LEMUR-2-MANO            
1 57390U 23100E   26074.01894758  .00170250  00000+0  18773-2 0  9993
2 57390  99.4528  98.3192 0001633 187.8698 172.2528 15.62522478147310
LEMUR-2-DEVERILL-M-T    
1 57391U 23100F   26074.25665120  .00032954  00000+0  96621-3 0  9996
2 57391  99.4574  86.2553 0007217  11.1176 349.0219 15.35114257146810
LEMUR-2-BASS            
1 58259U 23174D   26074.21846420  .00019513  00000+0  49005-3 0  9991
2 58259  97.3878 157.8343 0008487 144.5009 215.6803 15.39995402130886
