[{"OBJECT_NAME":"LEMUR-1","OBJECT_ID":"2014-033AL","EPOCH":"2026-03-14T23:05:48.812064","MEAN_MOTION":14.84832689,"ECCENTRICITY":0.00491272,"INCLINATION":97.7721,"RA_OF_ASC_NODE":225.9579,"ARG_OF_PERICENTER":28.7785,"MEAN_ANOMALY":331.6124,"EPHEMERIS_TYPE":0,"CLASSIFICATION_TYPE":"U","NORAD_CAT_ID":40044,"ELEMENT_SET_NO":999,"REV_AT_EPOCH":63148,"BSTAR":0.00034728758,"MEAN_MOTION_DOT":2.959e-5,"MEAN_MOTION_DDOT":0},{"OBJECT_NAME":"LEMUR-2-GREENBERG","OBJECT_ID":"2017-042N","EPOCH":"2026-03-15T06:57:34.429248","MEAN_MOTION":15.28224076,"ECCENTRICITY":0.00087439,"INCLINATION":97.3777,"RA_OF_ASC_NODE":255.5721,"ARG_OF_PERICENTER":343.3604,"MEAN_ANOMALY":16.7348,"EPHEMERIS_TYPE":0,"CLASSIFICATION_TYPE":"U","NORAD_CAT_ID":42837,"ELEMENT_SET_NO":999,"REV_AT_EPOCH":47403,"BSTAR":0.00073072218,"MEAN_MOTION_DOT":0.00020077,"MEAN_MOTION_DDOT":0},{"OBJECT_NAME":"LEMUR-2-ANDIS","OBJECT_ID":"2017-042P","EPOCH":"2026-03-15T05:55:16.400640","MEAN_MOTION":15.3086201,"ECCENTRICITY":0.00088794,"INCLINATION":97.366,"RA_OF_ASC_NODE":255.4404,"ARG_OF_PERICENTER":343.1108,"MEAN_ANOMALY":16.9837,"EPHEMERIS_TYPE":0,"CLASSIFICATION_TYPE":"U","NORAD_CAT_ID":42838,"ELEMENT_SET_NO":999,"REV_AT_EPOCH":47406,"BSTAR":0.00087746863,"MEAN_MOTION_DOT":0.00026183,"MEAN_MOTION_DDOT":0},{"OBJECT_NAME":"LEMUR-2-MONSON","OBJECT_ID":"2017-042Q","EPOCH":"2026-03-15T05:39:28.485504","MEAN_MOTION":15.25224248,"ECCENTRICITY":0.00062084,"INCLINATION":97.4034,"RA_OF_ASC_NODE":255.615,"ARG_OF_PERICENTER":332.1486,"MEAN_ANOMALY":27.9418,"EPHEMERIS_TYPE":0,"CLASSIFICATION_TYPE":"U","NORAD_CAT_ID":42839,"ELEMENT_SET_NO":999,"REV_AT_EPOCH":47383,"BSTAR":0.00077963277,"MEAN_MOTION_DOT":0.00019556,"MEAN_MOTION_DDOT":0},{"OBJECT_NAME":"LEMUR-2-FURIAUS","OBJECT_ID":"2017-042R","EPOCH":"2026-03-15T00:13:13.514016","MEAN_MOTION":15.26554397,"ECCENTRICITY":0.00073913,"INCLINATION":97.3746,"RA_OF_ASC_NODE":253.4828,"ARG_OF_PERICENTER":38.5422,"MEAN_ANOMALY":321.6343,"EPHEMERIS_TYPE":0,"CLASSIFICATION_TYPE":"U","NORAD_CAT_ID":42840,"ELEMENT_SET_NO":999,"REV_AT_EPOCH":47382,"BSTAR":0.0010779158,"MEAN_MOTION_DOT":0.00028209,"MEAN_MOTION_DDOT":0},{"OBJECT_NAME":"LEMUR-2-PETERG","OBJECT_ID":"2017-042S","EPOCH":"2026-03-15T05:43:28.925472","MEAN_MOTION":15.29955064,"ECCENTRICITY":0.00034066,"INCLINATION":97.3978,"RA_OF_ASC_NODE":259.3894,"ARG_OF_PERICENTER":319.6859,"MEAN_ANOMALY":40.4128,"EPHEMERIS_TYPE":0,"CLASSIFICATION_TYPE":"U","NORAD_CAT_ID":42841,"ELEMENT_SET_NO":999,"REV_AT_EPOCH":47405,"BSTAR":0.0010448781,"MEAN_MOTION_DOT":0.00030318,"MEAN_MOTION_DDOT":0},{"OBJECT_NAME":"LEMUR-2-DEMBITZ","OBJECT_ID":"2017-042T","EPOCH":"2026-03-15T07:21:49.870080","MEAN_MOTION":15.27192982,"ECCENTRICITY":0.00065987,"INCLINATION":97.3804,"RA_OF_ASC_NODE":256.6926,"ARG_OF_PERICENTER":356.6988,"MEAN_ANOMALY":3.4206,"EPHEMERIS_TYPE":0,"CLASSIFICATION_TYPE":"U","NORAD_CAT_ID":42842,"ELEMENT_SET_NO":999,"REV_AT_EPOCH":47400,"BSTAR":0.00073967812,"MEAN_MOTION_DOT":0.00019686,"MEAN_MOTION_DDOT":0},{"OBJECT_NAME":"LEMUR-2-ZACHARY","OBJECT_ID":"2017-042W","EPOCH":"2026-03-15T00:53:39.158592","MEAN_MOTION":15.42581604,"ECCENTRICITY":0.00035704,"INCLINATION":97.3655,"RA_OF_ASC_NODE":264.185,"ARG_OF_PERICENTER":357.9522,"MEAN_ANOMALY":2.171,"EPHEMERIS_TYPE":0,"CLASSIFICATION_TYPE":"U","NORAD_CAT_ID":42845,"ELEMENT_SET_NO":999,"REV_AT_EPOCH":47465,"BSTAR":0.0011107219,"MEAN_MOTION_DOT":0.0004843,"MEAN_MOTION_DDOT":0},{"OBJECT_NAME":"LEMUR-2-JIN-LUEN","OBJECT_ID":"2018-014C","EPOCH":"2026-03-14T17:28:32.504736","MEAN_MOTION":15.82063802,"ECCENTRICITY":0.00053709,"INCLINATION":97.5419,"RA_OF_ASC_NODE":4.4785,"ARG_OF_PERICENTER":148.9484,"MEAN_ANOMALY":211.2103,"EPHEMERIS_TYPE":0,"CLASSIFICATION_TYPE":"U","NORAD_CAT_ID":43182,"ELEMENT_SET_NO":999,"REV_AT_EPOCH":44626,"BSTAR":0.0017658844,"MEAN_MOTION_DOT":0.00373996,"MEAN_MOTION_DDOT":0},{"OBJECT_NAME":"LEMUR-2-KADI","OBJECT_ID":"2018-014E","EPOCH":"2026-03-15T05:35:02.806368","MEAN_MOTION":15.65353825,"ECCENTRICITY":0.00024422,"INCLINATION":97.4675,"RA_OF_ASC_NODE":359.2312,"ARG_OF_PERICENTER":142.9855,"MEAN_ANOMALY":217.1573,"EPHEMERIS_TYPE":0,"CLASSIFICATION_TYPE":"U","NORAD_CAT_ID":43184,"ELEMENT_SET_NO":999,"REV_AT_EPOCH":44625,"BSTAR":0.0010791184,"MEAN_MOTION_DOT":0.00108413,"MEAN_MOTION_DDOT":0},{"OBJECT_NAME":"LEMUR-2-AMANDA-SVANTE","OBJECT_ID":"2021-034B","EPOCH":"2026-03-15T05:01:39.804672","MEAN_MOTION":15.28833916,"ECCENTRICITY":0.00031675,"INCLINATION":97.5832,"RA_OF_ASC_NODE":150.3959,"ARG_OF_PERICENTER":189.7731,"MEAN_ANOMALY":170.3447,"EPHEMERIS_TYPE":0,"CLASSIFICATION_TYPE":"U","NORAD_CAT_ID":48269,"ELEMENT_SET_NO":999,"REV_AT_EPOCH":26667,"BSTAR":0.0012014058,"MEAN_MOTION_DOT":0.00033705,"MEAN_MOTION_DDOT":0},{"OBJECT_NAME":"LEMUR-2-SPECIAL-K","OBJECT_ID":"2021-034F","EPOCH":"2026-03-15T05:14:50.186688","MEAN_MOTION":15.4628807,"ECCENTRICITY":0.00019415,"INCLINATION":97.5713,"RA_OF_ASC_NODE":155.7707,"ARG_OF_PERICENTER":209.5036,"MEAN_ANOMALY":150.6103,"EPHEMERIS_TYPE":0,"CLASSIFICATION_TYPE":"U","NORAD_CAT_ID":48273,"ELEMENT_SET_NO":999,"REV_AT_EPOCH":26709,"BSTAR":0.0016302258,"MEAN_MOTION_DOT":0.00080947,"MEAN_MOTION_DDOT":0},{"OBJECT_NAME":"LEMUR-2-EMBRIONOVIS","OBJECT_ID":"2023-084AQ","EPOCH":"2026-03-15T06:40:40.990080","MEAN_MOTION":15.3484959,"ECCENTRICITY":0.00081954,"INCLINATION":97.6133,"RA_OF_ASC_NODE":215.1374,"ARG_OF_PERICENTER":290.0876,"MEAN_ANOMALY":69.9484,"EPHEMERIS_TYPE":0,"CLASSIFICATION_TYPE":"U","NORAD_CAT_ID":56970,"ELEMENT_SET_NO":999,"REV_AT_EPOCH":15326,"BSTAR":0.00061264153,"MEAN_MOTION_DOT":0.00020671,"MEAN_MOTION_DDOT":0},{"OBJECT_NAME":"LEMUR-2-MANO","OBJECT_ID":"2023-100E","EPOCH":"2026-03-15T00:27:17.070912","MEAN_MOTION":15.62522478,"ECCENTRICITY":0.00016337,"INCLINATION":99.4528,"RA_OF_ASC_NODE":98.3192,"ARG_OF_PERICENTER":187.8698,"MEAN_ANOMALY":172.2528,"EPHEMERIS_TYPE":0,"CLASSIFICATION_TYPE":"U","NORAD_CAT_ID":57390,"ELEMENT_SET_NO":999,"REV_AT_EPOCH":14731,"BSTAR":0.0018772847,"MEAN_MOTION_DOT":0.0017025,"MEAN_MOTION_DDOT":0},{"OBJECT_NAME":"LEMUR-2-DEVERILL-M-T","OBJECT_ID":"2023-100F","EPOCH":"2026-03-15T06:09:34.663680","MEAN_MOTION":15.35114257,"ECCENTRICITY":0.00072176,"INCLINATION":99.4574,"RA_OF_ASC_NODE":86.2553,"ARG_OF_PERICENTER":11.1176,"MEAN_ANOMALY":349.0219,"EPHEMERIS_TYPE":0,"CLASSIFICATION_TYPE":"U","NORAD_CAT_ID":57391,"ELEMENT_SET_NO":999,"REV_AT_EPOCH":14681,"BSTAR":0.00096621431,"MEAN_MOTION_DOT":0.00032954,"MEAN_MOTION_DDOT":0},{"OBJECT_NAME":"LEMUR-2-BASS","OBJECT_ID":"2023-174D","EPOCH":"2026-03-15T05:14:35.306880","MEAN_MOTION":15.39995402,"ECCENTRICITY":0.00084876,"INCLINATION":97.3878,"RA_OF_ASC_NODE":157.8343,"ARG_OF_PERICENTER":144.5009,"MEAN_ANOMALY":215.6803,"EPHEMERIS_TYPE":0,"CLASSIFICATION_TYPE":"U","NORAD_CAT_ID":58259,"ELEMENT_SET_NO":999,"REV_AT_EPOCH":13088,"BSTAR":0.00049005015,"MEAN_MOTION_DOT":0.00019513,"MEAN_MOTION_DDOT":0}]
